0 FENGYUN 1C DEB
1 35203U 99025DPK 13283.10721197  .00002303  00000-0  32586-2 0  2237
2 35203 102.0638 255.0576 0539628 333.9663 023.5518 13.10730026291965
0 FENGYUN 1C DEB
1 35203U 99025DPK 13285.16795554  .00002368  00000-0  33526-2 0  2240
2 35203 102.0644 257.3993 0539117 329.6355 027.4602 13.10741262292235
0 FENGYUN 1C DEB
1 35203U 99025DPK 13286.77075238  .00002409  00000-0  34364-2 0  2256
2 35203 102.0718 259.2297 0536145 326.2905 030.5474 13.10749847292449
0 FENGYUN 1C DEB
1 35203U 99025DPK 13288.14456195  .00002493  00000-0  35382-2 0  2269
2 35203 102.0701 260.7870 0537614 323.4285 033.1234 13.10758663292626
0 FENGYUN 1C DEB
1 35203U 99025DPK 13289.13676039  .00002622  00000-0  36948-2 0  2274
2 35203 102.0660 261.9053 0539826 321.3544 035.0395 13.10766749292755
0 FENGYUN 1C DEB
1 35203U 99025DPK 13290.12894698  .00002744  00000-0  38576-2 0  2283
2 35203 102.0639 263.0259 0540216 319.2132 037.0051 13.10774586292889
0 FENGYUN 1C DEB
1 35203U 99025DPK 13291.12112798  .00002808  00000-0  39328-2 0  2296
2 35203 102.0628 264.1481 0541424 317.1544 038.8709 13.10781692293013
0 FENGYUN 1C DEB
1 35203U 99025DPK 13295.16616350  .00003194  00000-0  44669-2 0  2302
2 35203 102.0648 268.7342 0540884 308.4648 047.0614 13.10813303293548
